{"type": "FeatureCollection", "features": [ {"type": "Feature", "properties": {"norad_id": 34472, "name": "COSMOS 2251 DEB", "group": "cosmos-2251-debris", "lat": -56.556414786701005, "lon": 48.380108076066556, "alt_km": 1031.2978238074302, "timestamp": "2025-12-27T10:28:59.188611+00:00", "meta": {"OBJECT_NAME": "COSMOS 2251 DEB", "OBJECT_ID": "1993-036TR", "EPOCH": "2025-12-25T14:59:08.401056", "MEAN_MOTION": 13.7035431, "ECCENTRICITY": 0.032767, "INCLINATION": 74.0846, "RA_OF_ASC_NODE": 76.9541, "ARG_OF_PERICENTER": 205.149, "MEAN_ANOMALY": 153.3364, "EPHEMERIS_TYPE": 0, "CLASSIFICATION_TYPE": "U", "NORAD_CAT_ID": 34472, "ELEMENT_SET_NO": 999, "REV_AT_EPOCH": 83903, "BSTAR": 0.00075081, "MEAN_MOTION_DOT": 9.47e-06, "MEAN_MOTION_DDOT": 0}, "tle": {"line1": "1 34472U 93036TR  25359.62440279  .00000947  00000+0  75081-3 0  9992", "line2": "2 34472  74.0846  76.9541 0327670 205.1490 153.3364 13.70354310839034"}}, "geometry": {"type": "Point", "coordinates": [48.380108076066556, -56.556414786701005]}}, {"type": "Feature", "properties": {"norad_id": 34474, "name": "COSMOS 2251 DEB", "group": "cosmos-2251-debris", "lat": -0.5087749834188409, "lon": 120.6647963571408, "alt_km": 1015.995187164639, "timestamp": "2025-12-27T10:28:59.188621+00:00", "meta": {"OBJECT_NAME": "COSMOS 2251 DEB", "OBJECT_ID": "1993-036TT", "EPOCH": "2025-12-27T02:53:26.264832", "MEAN_MOTION": 14.06538358, "ECCENTRICITY": 0.0199495, "INCLINATION": 74.0785, "RA_OF_ASC_NODE": 301.0717, "ARG_OF_PERICENTER": 11.5477, "MEAN_ANOMALY": 7.2057, "EPHEMERIS_TYPE": 0, "CLASSIFICATION_TYPE": "U", "NORAD_CAT_ID": 34474, "ELEMENT_SET_NO": 999, "REV_AT_EPOCH": 85711, "BSTAR": 0.0028034, "MEAN_MOTION_DOT": 5.538e-05, "MEAN_MOTION_DDOT": 0}, "tle": {"line1": "1 34474U 93036TT  25361.12044288  .00005538  00000+0  28034-2 0  9998", "line2": "2 34474  74.0785 301.0717 0199495  11.5477   7.2057 14.06538358857112"}}, "geometry": {"type": "Point", "coordinates": [120.6647963571408, -0.5087749834188409]}}, {"type": "Feature", "properties": {"norad_id": 34476, "name": "COSMOS 2251 DEB", "group": "cosmos-2251-debris", "lat": -51.463662933752346, "lon": 36.623141257283834, "alt_km": 758.3150593036944, "timestamp": "2025-12-27T10:28:59.188631+00:00", "meta": {"OBJECT_NAME": "COSMOS 2251 DEB", "OBJECT_ID": "1993-036TV", "EPOCH": "2025-12-27T03:47:21.465312", "MEAN_MOTION": 13.82191935, "ECCENTRICITY": 0.0322828, "INCLINATION": 74.0067, "RA_OF_ASC_NODE": 58.1984, "ARG_OF_PERICENTER": 274.8474, "MEAN_ANOMALY": 81.5866, "EPHEMERIS_TYPE": 0, "CLASSIFICATION_TYPE": "U", "NORAD_CAT_ID": 34476, "ELEMENT_SET_NO": 999, "REV_AT_EPOCH": 83837, "BSTAR": 0.0046333, "MEAN_MOTION_DOT": 7.418e-05, "MEAN_MOTION_DDOT": 0}, "tle": {"line1": "1 34476U 93036TV  25361.15788733  .00007418  00000+0  46333-2 0  9994", "line2": "2 34476  74.0067  58.1984 0322828 274.8474  81.5866 13.82191935838371"}}, "geometry": {"type": "Point", "coordinates": [36.623141257283834, -51.463662933752346]}}, {"type": "Feature", "properties": {"norad_id": 34477, "name": "COSMOS 2251 DEB", "group": "cosmos-2251-debris", "lat": -11.823707876478682, "lon": -135.05902151328, "alt_km": 661.7797563728618, "timestamp": "2025-12-27T10:28:59.188641+00:00", "meta": {"OBJECT_NAME": "COSMOS 2251 DEB", "OBJECT_ID": "1993-036TW", "EPOCH": "2025-12-27T04:56:52.339776", "MEAN_MOTION": 14.56964819, "ECCENTRICITY": 0.0076567, "INCLINATION": 73.9787, "RA_OF_ASC_NODE": 41.9318, "ARG_OF_PERICENTER": 226.3845, "MEAN_ANOMALY": 197.0896, "EPHEMERIS_TYPE": 0, "CLASSIFICATION_TYPE": "U", "NORAD_CAT_ID": 34477, "ELEMENT_SET_NO": 999, "REV_AT_EPOCH": 88836, "BSTAR": 0.00086716, "MEAN_MOTION_DOT": 4.025e-05, "MEAN_MOTION_DDOT": 0}, "tle": {"line1": "1 34477U 93036TW  25361.20616134  .00004025  00000+0  86716-3 0  9997", "line2": "2 34477  73.9787  41.9318 0076567 226.3845 197.0896 14.56964819888361"}}, "geometry": {"type": "Point", "coordinates": [-135.05902151328, -11.823707876478682]}}, {"type": "Feature", "properties": {"norad_id": 34478, "name": "COSMOS 2251 DEB", "group": "cosmos-2251-debris", "lat": -68.8887875720598, "lon": -71.21860575660106, "alt_km": 545.9189374888401, "timestamp": "2025-12-27T10:28:59.188651+00:00", "meta": {"OBJECT_NAME": "COSMOS 2251 DEB", "OBJECT_ID": "1993-036TX", "EPOCH": "2025-12-27T01:48:26.294112", "MEAN_MOTION": 15.09313418, "ECCENTRICITY": 0.0033438, "INCLINATION": 74.0399, "RA_OF_ASC_NODE": 337.3639, "ARG_OF_PERICENTER": 192.5688, "MEAN_ANOMALY": 287.7096, "EPHEMERIS_TYPE": 0, "CLASSIFICATION_TYPE": "U", "NORAD_CAT_ID": 34478, "ELEMENT_SET_NO": 999, "REV_AT_EPOCH": 89189, "BSTAR": 0.0039113, "MEAN_MOTION_DOT": 0.00063716, "MEAN_MOTION_DDOT": 0}, "tle": {"line1": "1 34478U 93036TX  25361.07530433  .00063716  00000+0  39113-2 0  9990", "line2": "2 34478  74.0399 337.3639 0033438 192.5688 287.7096 15.09313418891893"}}, "geometry": {"type": "Point", "coordinates": [-71.21860575660106, -68.8887875720598]}}, {"type": "Feature", "properties": {"norad_id": 34481, "name": "COSMOS 2251 DEB", "group": "cosmos-2251-debris", "lat": 0.7278946809066824, "lon": -153.68002744654848, "alt_km": 738.013173180424, "timestamp": "2025-12-27T10:28:59.188661+00:00", "meta": {"OBJECT_NAME": "COSMOS 2251 DEB", "OBJECT_ID": "1993-036UA", "EPOCH": "2025-12-27T03:12:52.796160", "MEAN_MOTION": 14.32602495, "ECCENTRICITY": 0.0070116, "INCLINATION": 73.9788, "RA_OF_ASC_NODE": 27.0838, "ARG_OF_PERICENTER": 198.6933, "MEAN_ANOMALY": 219.3983, "EPHEMERIS_TYPE": 0, "CLASSIFICATION_TYPE": "U", "NORAD_CAT_ID": 34481, "ELEMENT_SET_NO": 999, "REV_AT_EPOCH": 87655, "BSTAR": 0.00069483, "MEAN_MOTION_DOT": 1.913e-05, "MEAN_MOTION_DDOT": 0}, "tle": {"line1": "1 34481U 93036UA  25361.13394440  .00001913  00000+0  69483-3 0  9992", "line2": "2 34481  73.9788  27.0838 0070116 198.6933 219.3983 14.32602495876558"}}, "geometry": {"type": "Point", "coordinates": [-153.68002744654848, 0.7278946809066824]}}, {"type": "Feature", "properties": {"norad_id": 34482, "name": "COSMOS 2251 DEB", "group": "cosmos-2251-debris", "lat": 45.89183452338093, "lon": -2.048327986613391, "alt_km": 674.253943147356, "timestamp": "2025-12-27T10:28:59.188671+00:00", "meta": {"OBJECT_NAME": "COSMOS 2251 DEB", "OBJECT_ID": "1993-036UB", "EPOCH": "2025-12-27T00:47:42.432000", "MEAN_MOTION": 14.69464358, "ECCENTRICITY": 0.0044235, "INCLINATION": 74.0356, "RA_OF_ASC_NODE": 195.9099, "ARG_OF_PERICENTER": 253.2787, "MEAN_ANOMALY": 264.2205, "EPHEMERIS_TYPE": 0, "CLASSIFICATION_TYPE": "U", "NORAD_CAT_ID": 34482, "ELEMENT_SET_NO": 999, "REV_AT_EPOCH": 88397, "BSTAR": 0.0022516, "MEAN_MOTION_DOT": 0.00013536, "MEAN_MOTION_DDOT": 0}, "tle": {"line1": "1 34482U 93036UB  25361.03313000  .00013536  00000+0  22516-2 0  9994", "line2": "2 34482  74.0356 195.9099 0044235 253.2787 264.2205 14.69464358883978"}}, "geometry": {"type": "Point", "coordinates": [-2.048327986613391, 45.89183452338093]}}, {"type": "Feature", "properties": {"norad_id": 34544, "name": "COSMOS 2251 DEB", "group": "cosmos-2251-debris", "lat": 67.26308042618838, "lon": -136.24816659330781, "alt_km": 1233.7358094580486, "timestamp": "2025-12-27T10:28:59.188681+00:00", "meta": {"OBJECT_NAME": "COSMOS 2251 DEB", "OBJECT_ID": "1993-036UE", "EPOCH": "2025-12-26T20:14:39.256224", "MEAN_MOTION": 13.54677608, "ECCENTRICITY": 0.03835067, "INCLINATION": 73.9136, "RA_OF_ASC_NODE": 181.1961, "ARG_OF_PERICENTER": 207.0709, "MEAN_ANOMALY": 217.7039, "EPHEMERIS_TYPE": 0, "CLASSIFICATION_TYPE": "U", "NORAD_CAT_ID": 34544, "ELEMENT_SET_NO": 999, "REV_AT_EPOCH": 83073, "BSTAR": 0.00061952513, "MEAN_MOTION_DOT": 6.56e-06, "MEAN_MOTION_DDOT": 0}, "tle": {"line1": "1 34544U 93036UE  25360.84350991  .00000656  00000+0  61953-3 0  9999", "line2": "2 34544  73.9136 181.1961 0383506 207.0709 217.7039 13.54677608830735"}}, "geometry": {"type": "Point", "coordinates": [-136.24816659330781, 67.26308042618838]}}, {"type": "Feature", "properties": {"norad_id": 34546, "name": "COSMOS 2251 DEB", "group": "cosmos-2251-debris", "lat": 33.89821379267397, "lon": 30.687083266829916, "alt_km": 751.4893954401805, "timestamp": "2025-12-27T10:28:59.188690+00:00", "meta": {"OBJECT_NAME": "COSMOS 2251 DEB", "OBJECT_ID": "1993-036UG", "EPOCH": "2025-12-27T02:06:11.688192", "MEAN_MOTION": 14.45468681, "ECCENTRICITY": 0.0022063, "INCLINATION": 74.0291, "RA_OF_ASC_NODE": 222.4325, "ARG_OF_PERICENTER": 294.63, "MEAN_ANOMALY": 193.7614, "EPHEMERIS_TYPE": 0, "CLASSIFICATION_TYPE": "U", "NORAD_CAT_ID": 34546, "ELEMENT_SET_NO": 999, "REV_AT_EPOCH": 88233, "BSTAR": 0.00060236, "MEAN_MOTION_DOT": 2.102e-05, "MEAN_MOTION_DDOT": 0}, "tle": {"line1": "1 34546U 93036UG  25361.08763528  .00002102  00000+0  60236-3 0  9993", "line2": "2 34546  74.0291 222.4325 0022063 294.6300 193.7614 14.45468681882336"}}, "geometry": {"type": "Point", "coordinates": [30.687083266829916, 33.89821379267397]}}, {"type": "Feature", "properties": {"norad_id": 34547, "name": "COSMOS 2251 DEB", "group": "cosmos-2251-debris", "lat": -34.9113724267651, "lon": 60.57757258553051, "alt_km": 669.5049411932177, "timestamp": "2025-12-27T10:28:59.188701+00:00", "meta": {"OBJECT_NAME": "COSMOS 2251 DEB", "OBJECT_ID": "1993-036UH", "EPOCH": "2025-12-26T11:49:24.852000", "MEAN_MOTION": 14.72636699, "ECCENTRICITY": 0.001571, "INCLINATION": 74.0294, "RA_OF_ASC_NODE": 73.9449, "ARG_OF_PERICENTER": 151.3373, "MEAN_ANOMALY": 208.8666, "EPHEMERIS_TYPE": 0, "CLASSIFICATION_TYPE": "U", "NORAD_CAT_ID": 34547, "ELEMENT_SET_NO": 999, "REV_AT_EPOCH": 88724, "BSTAR": 0.00164, "MEAN_MOTION_DOT": 0.00010451, "MEAN_MOTION_DDOT": 0}, "tle": {"line1": "1 34547U 93036UH  25360.49264875  .00010451  00000+0  16400-2 0  9998", "line2": "2 34547  74.0294  73.9449 0015710 151.3373 208.8666 14.72636699887242"}}, "geometry": {"type": "Point", "coordinates": [60.57757258553051, -34.9113724267651]}}]}